[Satellite]
VERSION=1.1
NAME=FENGYUN 3B
NICKNAME=FENGYUN 3B
TLE1=1 37214U 10059A   19317.90524624  .00000035  00000-0  40769-4 0  9993
TLE2=2 37214  99.0190 291.6176 0017077 157.8180 202.3741 14.15930369467031
STATUS=0
